CCSDS_OMM_VERS = 2.0
CREATION_DATE  = 
ORIGINATOR     = 

OBJECT_NAME    = YOTSUBA-KULOVER
OBJECT_ID      = 1998-067XN
CENTER_NAME    = EARTH
REF_FRAME      = TEME
TIME_SYSTEM    = UTC
MEAN_ELEMENT_THEORY = SGP/SGP4

EPOCH          = 2026-03-05T05:07:31.209024
MEAN_MOTION    = 15.78483235
ECCENTRICITY   = .0006006
INCLINATION    = 51.6207
RA_OF_ASC_NODE = 80.4741
ARG_OF_PERICENTER = 39.9520
MEAN_ANOMALY   = 320.1922

EPHEMERIS_TYPE = 0
CLASSIFICATION_TYPE = U
NORAD_CAT_ID   = 65941
ELEMENT_SET_NO = 999
REV_AT_EPOCH   = 2279
BSTAR          = .1139E-2
MEAN_MOTION_DOT = .206402E-2
MEAN_MOTION_DDOT = 0

CCSDS_OMM_VERS = 2.0
CREATION_DATE  = 
ORIGINATOR     = 

OBJECT_NAME    = E-KAGAKU-1
OBJECT_ID      = 1998-067XQ
CENTER_NAME    = EARTH
REF_FRAME      = TEME
TIME_SYSTEM    = UTC
MEAN_ELEMENT_THEORY = SGP/SGP4

EPOCH          = 2026-03-05T05:12:38.526912
MEAN_MOTION    = 15.78200281
ECCENTRICITY   = .0006195
INCLINATION    = 51.6242
RA_OF_ASC_NODE = 80.5167
ARG_OF_PERICENTER = 46.2025
MEAN_ANOMALY   = 313.9487

EPHEMERIS_TYPE = 0
CLASSIFICATION_TYPE = U
NORAD_CAT_ID   = 65943
ELEMENT_SET_NO = 999
REV_AT_EPOCH   = 2279
BSTAR          = .10949E-2
MEAN_MOTION_DOT = .195636E-2
MEAN_MOTION_DDOT = 0

CCSDS_OMM_VERS = 2.0
CREATION_DATE  = 
ORIGINATOR     = 

OBJECT_NAME    = HRC MONOBLOCK CAMERA
OBJECT_ID      = 1998-067XR
CENTER_NAME    = EARTH
REF_FRAME      = TEME
TIME_SYSTEM    = UTC
MEAN_ELEMENT_THEORY = SGP/SGP4

EPOCH          = 2026-03-05T08:23:30.713856
MEAN_MOTION    = 15.61660295
ECCENTRICITY   = .0003445
INCLINATION    = 51.6271
RA_OF_ASC_NODE = 87.4281
ARG_OF_PERICENTER = 72.3165
MEAN_ANOMALY   = 287.8204

EPHEMERIS_TYPE = 0
CLASSIFICATION_TYPE = U
NORAD_CAT_ID   = 66052
ELEMENT_SET_NO = 999
REV_AT_EPOCH   = 2171
BSTAR          = .65457E-3
MEAN_MOTION_DOT = .57407E-3
MEAN_MOTION_DDOT = 0

CCSDS_OMM_VERS = 2.0
CREATION_DATE  = 
ORIGINATOR     = 

OBJECT_NAME    = HTV-X1
OBJECT_ID      = 2025-241A
CENTER_NAME    = EARTH
REF_FRAME      = TEME
TIME_SYSTEM    = UTC
MEAN_ELEMENT_THEORY = SGP/SGP4

EPOCH          = 2026-03-05T16:56:13.265376
MEAN_MOTION    = 15.48463204
ECCENTRICITY   = .0008143
INCLINATION    = 51.6315
RA_OF_ASC_NODE = 92.0530
ARG_OF_PERICENTER = 160.3826
MEAN_ANOMALY   = 199.7477

EPHEMERIS_TYPE = 0
CLASSIFICATION_TYPE = U
NORAD_CAT_ID   = 66174
ELEMENT_SET_NO = 999
REV_AT_EPOCH   = 55585
BSTAR          = .17141E-3
MEAN_MOTION_DOT = .8837E-4
MEAN_MOTION_DDOT = 0

CCSDS_OMM_VERS = 2.0
CREATION_DATE  = 
ORIGINATOR     = 

OBJECT_NAME    = SZ-21 MODULE
OBJECT_ID      = 2025-246C
CENTER_NAME    = EARTH
REF_FRAME      = TEME
TIME_SYSTEM    = UTC
MEAN_ELEMENT_THEORY = SGP/SGP4

EPOCH          = 2026-03-05T19:22:19.378272
MEAN_MOTION    = 15.68194204
ECCENTRICITY   = .0001428
INCLINATION    = 41.4734
RA_OF_ASC_NODE = 227.2544
ARG_OF_PERICENTER = 292.1430
MEAN_ANOMALY   = 67.9260

EPHEMERIS_TYPE = 0
CLASSIFICATION_TYPE = U
NORAD_CAT_ID   = 66515
ELEMENT_SET_NO = 999
REV_AT_EPOCH   = 1746
BSTAR          = .36032E-3
MEAN_MOTION_DOT = .4131E-3
MEAN_MOTION_DDOT = 0

CCSDS_OMM_VERS = 2.0
CREATION_DATE  = 
ORIGINATOR     = 

OBJECT_NAME    = SHENZHOU-22
OBJECT_ID      = 2025-272A
CENTER_NAME    = EARTH
REF_FRAME      = TEME
TIME_SYSTEM    = UTC
MEAN_ELEMENT_THEORY = SGP/SGP4

EPOCH          = 2026-03-05T19:28:58.851264
MEAN_MOTION    = 15.60440439
ECCENTRICITY   = .0006853
INCLINATION    = 41.4658
RA_OF_ASC_NODE = 231.7522
ARG_OF_PERICENTER = 249.1722
MEAN_ANOMALY   = 110.8383

EPHEMERIS_TYPE = 0
CLASSIFICATION_TYPE = U
NORAD_CAT_ID   = 66645
ELEMENT_SET_NO = 999
REV_AT_EPOCH   = 26857
BSTAR          = .21787E-3
MEAN_MOTION_DOT = .1815E-3
MEAN_MOTION_DDOT = 0

CCSDS_OMM_VERS = 2.0
CREATION_DATE  = 
ORIGINATOR     = 

OBJECT_NAME    = SOYUZ-MS 28
OBJECT_ID      = 2025-275A
CENTER_NAME    = EARTH
REF_FRAME      = TEME
TIME_SYSTEM    = UTC
MEAN_ELEMENT_THEORY = SGP/SGP4

EPOCH          = 2026-03-05T16:56:13.265376
MEAN_MOTION    = 15.48463204
ECCENTRICITY   = .0008143
INCLINATION    = 51.6315
RA_OF_ASC_NODE = 92.0530
ARG_OF_PERICENTER = 160.3826
MEAN_ANOMALY   = 199.7477

EPHEMERIS_TYPE = 0
CLASSIFICATION_TYPE = U
NORAD_CAT_ID   = 66664
ELEMENT_SET_NO = 999
REV_AT_EPOCH   = 55593
BSTAR          = .17141E-3
MEAN_MOTION_DOT = .8837E-4
MEAN_MOTION_DDOT = 0

CCSDS_OMM_VERS = 2.0
CREATION_DATE  = 
ORIGINATOR     = 

OBJECT_NAME    = DUPLEX
OBJECT_ID      = 1998-067XS
CENTER_NAME    = EARTH
REF_FRAME      = TEME
TIME_SYSTEM    = UTC
MEAN_ELEMENT_THEORY = SGP/SGP4

EPOCH          = 2026-03-05T11:25:18.001920
MEAN_MOTION    = 15.55906862
ECCENTRICITY   = .0002119
INCLINATION    = 51.6284
RA_OF_ASC_NODE = 90.5226
ARG_OF_PERICENTER = 94.8797
MEAN_ANOMALY   = 265.2436

EPHEMERIS_TYPE = 0
CLASSIFICATION_TYPE = U
NORAD_CAT_ID   = 66906
ELEMENT_SET_NO = 999
REV_AT_EPOCH   = 1447
BSTAR          = .52303E-3
MEAN_MOTION_DOT = .36643E-3
MEAN_MOTION_DDOT = 0

CCSDS_OMM_VERS = 2.0
CREATION_DATE  = 
ORIGINATOR     = 

OBJECT_NAME    = ISS OBJECT XT
OBJECT_ID      = 1998-067XT
CENTER_NAME    = EARTH
REF_FRAME      = TEME
TIME_SYSTEM    = UTC
MEAN_ELEMENT_THEORY = SGP/SGP4

EPOCH          = 2026-03-05T10:35:42.312480
MEAN_MOTION    = 15.67788238
ECCENTRICITY   = .0004657
INCLINATION    = 51.6247
RA_OF_ASC_NODE = 87.2807
ARG_OF_PERICENTER = 52.1849
MEAN_ANOMALY   = 307.9568

EPHEMERIS_TYPE = 0
CLASSIFICATION_TYPE = U
NORAD_CAT_ID   = 66907
ELEMENT_SET_NO = 999
REV_AT_EPOCH   = 1451
BSTAR          = .1379E-2
MEAN_MOTION_DOT = .157068E-2
MEAN_MOTION_DDOT = 0

CCSDS_OMM_VERS = 2.0
CREATION_DATE  = 
ORIGINATOR     = 

OBJECT_NAME    = ISS OBJECT XU
OBJECT_ID      = 1998-067XU
CENTER_NAME    = EARTH
REF_FRAME      = TEME
TIME_SYSTEM    = UTC
MEAN_ELEMENT_THEORY = SGP/SGP4

EPOCH          = 2026-03-05T10:33:32.153472
MEAN_MOTION    = 15.67879938
ECCENTRICITY   = .0004712
INCLINATION    = 51.6241
RA_OF_ASC_NODE = 87.2668
ARG_OF_PERICENTER = 54.5984
MEAN_ANOMALY   = 305.5452

EPHEMERIS_TYPE = 0
CLASSIFICATION_TYPE = U
NORAD_CAT_ID   = 66908
ELEMENT_SET_NO = 999
REV_AT_EPOCH   = 1451
BSTAR          = .13656E-2
MEAN_MOTION_DOT = .156104E-2
MEAN_MOTION_DDOT = 0

CCSDS_OMM_VERS = 2.0
CREATION_DATE  = 
ORIGINATOR     = 

OBJECT_NAME    = SILVERSAT
OBJECT_ID      = 1998-067XV
CENTER_NAME    = EARTH
REF_FRAME      = TEME
TIME_SYSTEM    = UTC
MEAN_ELEMENT_THEORY = SGP/SGP4

EPOCH          = 2026-03-05T06:10:54.547392
MEAN_MOTION    = 15.70352988
ECCENTRICITY   = .0005476
INCLINATION    = 51.6245
RA_OF_ASC_NODE = 87.5489
ARG_OF_PERICENTER = 49.7289
MEAN_ANOMALY   = 310.4186

EPHEMERIS_TYPE = 0
CLASSIFICATION_TYPE = U
NORAD_CAT_ID   = 66909
ELEMENT_SET_NO = 999
REV_AT_EPOCH   = 1449
BSTAR          = .1502E-2
MEAN_MOTION_DOT = .191073E-2
MEAN_MOTION_DDOT = 0

CCSDS_OMM_VERS = 2.0
CREATION_DATE  = 
ORIGINATOR     = 

OBJECT_NAME    = ISS OBJECT XW
OBJECT_ID      = 1998-067XW
CENTER_NAME    = EARTH
REF_FRAME      = TEME
TIME_SYSTEM    = UTC
MEAN_ELEMENT_THEORY = SGP/SGP4

EPOCH          = 2026-03-05T10:26:00.570912
MEAN_MOTION    = 15.67264475
ECCENTRICITY   = .0004998
INCLINATION    = 51.6238
RA_OF_ASC_NODE = 87.2274
ARG_OF_PERICENTER = 61.6511
MEAN_ANOMALY   = 298.4989

EPHEMERIS_TYPE = 0
CLASSIFICATION_TYPE = U
NORAD_CAT_ID   = 66910
ELEMENT_SET_NO = 999
REV_AT_EPOCH   = 1451
BSTAR          = .12484E-2
MEAN_MOTION_DOT = .138836E-2
MEAN_MOTION_DDOT = 0

