YOTSUBA-KULOVER         
1 65941U 98067XN  26064.21355566  .00206402  00000+0  11390-2 0  9995
2 65941  51.6207  80.4741 0006006  39.9520 320.1922 15.78483235 22797
E-KAGAKU-1              
1 65943U 98067XQ  26064.21711258  .00195636  00000+0  10949-2 0  9996
2 65943  51.6242  80.5167 0006195  46.2025 313.9487 15.78200281 22795
HRC MONOBLOCK CAMERA    
1 66052U 98067XR  26064.34966104  .00057407  00000+0  65457-3 0  9992
2 66052  51.6271  87.4281 0003445  72.3165 287.8204 15.61660295 21716
HTV-X1                  
1 66174U 25241A   26064.70570909  .00008837  00000+0  17141-3 0  9995
2 66174  51.6315  92.0530 0008143 160.3826 199.7477 15.48463204555857
SZ-21 MODULE            
1 66515U 25246C   26064.80716873  .00041310  00000+0  36032-3 0  9995
2 66515  41.4734 227.2544 0001428 292.1430  67.9260 15.68194204 17468
SHENZHOU-22             
1 66645U 25272A   26064.81179226  .00018150  00000+0  21787-3 0  9991
2 66645  41.4658 231.7522 0006853 249.1722 110.8383 15.60440439268576
SOYUZ-MS 28             
1 66664U 25275A   26064.70570909  .00008837  00000+0  17141-3 0  9996
2 66664  51.6315  92.0530 0008143 160.3826 199.7477 15.48463204555930
DUPLEX                  
1 66906U 98067XS  26064.47590280  .00036643  00000+0  52303-3 0  9997
2 66906  51.6284  90.5226 0002119  94.8797 265.2436 15.55906862 14477
ISS OBJECT XT           
1 66907U 98067XT  26064.44146195  .00157068  00000+0  13790-2 0  9998
2 66907  51.6247  87.2807 0004657  52.1849 307.9568 15.67788238 14512
ISS OBJECT XU           
1 66908U 98067XU  26064.43995548  .00156104  00000+0  13656-2 0  9993
2 66908  51.6241  87.2668 0004712  54.5984 305.5452 15.67879938 14514
SILVERSAT               
1 66909U 98067XV  26064.25757578  .00191073  00000+0  15020-2 0  9994
2 66909  51.6245  87.5489 0005476  49.7289 310.4186 15.70352988 14496
ISS OBJECT XW           
1 66910U 98067XW  26064.43472883  .00138836  00000+0  12484-2 0  9998
2 66910  51.6238  87.2274 0004998  61.6511 298.4989 15.67264475 14516
